{"type": "FeatureCollection", "features": [ {"type": "Feature", "properties": {"norad_id": 17070, "name": "POLAR BEAR", "group": "nnss", "lat": -39.80416270587977, "lon": -177.00313986101702, "alt_km": 1005.0838050178627, "timestamp": "2025-12-24T03:53:29.915737+00:00", "meta": {"OBJECT_NAME": "POLAR BEAR", "OBJECT_ID": "1986-088A", "EPOCH": "2025-12-23T00:55:53.242752", "MEAN_MOTION": 13.7525287, "ECCENTRICITY": 0.00412913, "INCLINATION": 89.6171, "RA_OF_ASC_NODE": 183.3614, "ARG_OF_PERICENTER": 89.6168, "MEAN_ANOMALY": 72.8852, "EPHEMERIS_TYPE": 0, "CLASSIFICATION_TYPE": "U", "NORAD_CAT_ID": 17070, "ELEMENT_SET_NO": 999, "REV_AT_EPOCH": 96120, "BSTAR": 9.1661902e-05, "MEAN_MOTION_DOT": 1e-06, "MEAN_MOTION_DDOT": 0}, "tle": {"line1": "1 17070U 86088A   25357.03881068  .00000100  00000+0  91662-4 0  9999", "line2": "2 17070  89.6171 183.3614 0041291  89.6168  72.8852 13.75252870961200"}}, "geometry": {"type": "Point", "coordinates": [-177.00313986101702, -39.80416270587977]}}, {"type": "Feature", "properties": {"norad_id": 18361, "name": "OSCAR 27", "group": "nnss", "lat": 51.245955340568884, "lon": 79.23346745658282, "alt_km": 1145.0701834702904, "timestamp": "2025-12-24T03:53:29.915747+00:00", "meta": {"OBJECT_NAME": "OSCAR 27", "OBJECT_ID": "1987-080A", "EPOCH": "2025-12-23T04:25:12.444384", "MEAN_MOTION": 13.44908817, "ECCENTRICITY": 0.01037887, "INCLINATION": 90.3738, "RA_OF_ASC_NODE": 79.6629, "ARG_OF_PERICENTER": 193.7068, "MEAN_ANOMALY": 166.1258, "EPHEMERIS_TYPE": 0, "CLASSIFICATION_TYPE": "U", "NORAD_CAT_ID": 18361, "ELEMENT_SET_NO": 999, "REV_AT_EPOCH": 87697, "BSTAR": 0.0001802801, "MEAN_MOTION_DOT": 1.17e-06, "MEAN_MOTION_DDOT": 0}, "tle": {"line1": "1 18361U 87080A   25357.18417181  .00000117  00000+0  18028-3 0  9995", "line2": "2 18361  90.3738  79.6629 0103788 193.7068 166.1258 13.44908817876972"}}, "geometry": {"type": "Point", "coordinates": [79.23346745658282, 51.245955340568884]}}, {"type": "Feature", "properties": {"norad_id": 18362, "name": "OSCAR 29", "group": "nnss", "lat": 45.15075146398122, "lon": 79.78212415370338, "alt_km": 1165.5767511299973, "timestamp": "2025-12-24T03:53:29.915758+00:00", "meta": {"OBJECT_NAME": "OSCAR 29", "OBJECT_ID": "1987-080B", "EPOCH": "2025-12-23T04:43:56.481600", "MEAN_MOTION": 13.44450399, "ECCENTRICITY": 0.0104605, "INCLINATION": 90.375, "RA_OF_ASC_NODE": 80.1232, "ARG_OF_PERICENTER": 216.8758, "MEAN_ANOMALY": 200.8691, "EPHEMERIS_TYPE": 0, "CLASSIFICATION_TYPE": "U", "NORAD_CAT_ID": 18362, "ELEMENT_SET_NO": 999, "REV_AT_EPOCH": 87650, "BSTAR": 0.00018208714, "MEAN_MOTION_DOT": 1.17e-06, "MEAN_MOTION_DDOT": 0}, "tle": {"line1": "1 18362U 87080B   25357.19718150  .00000117  00000+0  18209-3 0  9998", "line2": "2 18362  90.3750  80.1232 0104605 216.8758 200.8691 13.44450399876509"}}, "geometry": {"type": "Point", "coordinates": [79.78212415370338, 45.15075146398122]}}, {"type": "Feature", "properties": {"norad_id": 19070, "name": "OSCAR 23", "group": "nnss", "lat": -38.755223307010276, "lon": -163.51091187902995, "alt_km": 1111.1514219820374, "timestamp": "2025-12-24T03:53:29.915768+00:00", "meta": {"OBJECT_NAME": "OSCAR 23", "OBJECT_ID": "1988-033A", "EPOCH": "2025-12-23T01:46:21.934272", "MEAN_MOTION": 13.27788834, "ECCENTRICITY": 0.01903534, "INCLINATION": 90.3204, "RA_OF_ASC_NODE": 16.7126, "ARG_OF_PERICENTER": 151.2472, "MEAN_ANOMALY": 266.342, "EPHEMERIS_TYPE": 0, "CLASSIFICATION_TYPE": "U", "NORAD_CAT_ID": 19070, "ELEMENT_SET_NO": 999, "REV_AT_EPOCH": 82390, "BSTAR": 0.00016035197, "MEAN_MOTION_DOT": 8.9e-07, "MEAN_MOTION_DDOT": 0}, "tle": {"line1": "1 19070U 88033A   25357.07386498  .00000089  00000+0  16035-3 0  9990", "line2": "2 19070  90.3204  16.7126 0190353 151.2472 266.3420 13.27788834823909"}}, "geometry": {"type": "Point", "coordinates": [-163.51091187902995, -38.755223307010276]}}, {"type": "Feature", "properties": {"norad_id": 19071, "name": "OSCAR 32", "group": "nnss", "lat": -27.001780661432665, "lon": 17.042402610651543, "alt_km": 1295.5204917293504, "timestamp": "2025-12-24T03:53:29.915778+00:00", "meta": {"OBJECT_NAME": "OSCAR 32", "OBJECT_ID": "1988-033B", "EPOCH": "2025-12-23T19:50:51.879840", "MEAN_MOTION": 13.27955627, "ECCENTRICITY": 0.0189157, "INCLINATION": 90.3208, "RA_OF_ASC_NODE": 16.8684, "ARG_OF_PERICENTER": 136.0866, "MEAN_ANOMALY": 36.335, "EPHEMERIS_TYPE": 0, "CLASSIFICATION_TYPE": "U", "NORAD_CAT_ID": 19071, "ELEMENT_SET_NO": 999, "REV_AT_EPOCH": 82412, "BSTAR": 9.9481e-05, "MEAN_MOTION_DOT": 5.9e-07, "MEAN_MOTION_DDOT": 0}, "tle": {"line1": "1 19071U 88033B   25357.82698935  .00000059  00000+0  99481-4 0  9990", "line2": "2 19071  90.3208  16.8684 0189157 136.0866  36.3350 13.27955627824120"}}, "geometry": {"type": "Point", "coordinates": [17.042402610651543, -27.001780661432665]}}, {"type": "Feature", "properties": {"norad_id": 19223, "name": "NOVA 2", "group": "nnss", "lat": -35.273694949039175, "lon": 78.24878720973012, "alt_km": 1158.753675805412, "timestamp": "2025-12-24T03:53:29.915789+00:00", "meta": {"OBJECT_NAME": "NOVA 2", "OBJECT_ID": "1988-052A", "EPOCH": "2025-12-22T19:59:41.866944", "MEAN_MOTION": 13.22936943, "ECCENTRICITY": 0.00297225, "INCLINATION": 89.9867, "RA_OF_ASC_NODE": 78.2599, "ARG_OF_PERICENTER": 349.0095, "MEAN_ANOMALY": 130.0034, "EPHEMERIS_TYPE": 0, "CLASSIFICATION_TYPE": "U", "NORAD_CAT_ID": 19223, "ELEMENT_SET_NO": 999, "REV_AT_EPOCH": 81081, "BSTAR": 0.00019678035, "MEAN_MOTION_DOT": 9.1e-07, "MEAN_MOTION_DDOT": 0}, "tle": {"line1": "1 19223U 88052A   25356.83312346  .00000091  00000+0  19678-3 0  9994", "line2": "2 19223  89.9867  78.2599 0029722 349.0095 130.0034 13.22936943810819"}}, "geometry": {"type": "Point", "coordinates": [78.24878720973012, -35.273694949039175]}}, {"type": "Feature", "properties": {"norad_id": 19419, "name": "OSCAR 25", "group": "nnss", "lat": 51.40803767954345, "lon": -159.67653066346486, "alt_km": 1087.0782423650599, "timestamp": "2025-12-24T03:53:29.915799+00:00", "meta": {"OBJECT_NAME": "OSCAR 25", "OBJECT_ID": "1988-074A", "EPOCH": "2025-12-23T19:11:04.430112", "MEAN_MOTION": 13.42625286, "ECCENTRICITY": 0.0095102, "INCLINATION": 90.0337, "RA_OF_ASC_NODE": 20.28, "ARG_OF_PERICENTER": 213.8581, "MEAN_ANOMALY": 323.2352, "EPHEMERIS_TYPE": 0, "CLASSIFICATION_TYPE": "U", "NORAD_CAT_ID": 19419, "ELEMENT_SET_NO": 999, "REV_AT_EPOCH": 82788, "BSTAR": 0.00012495, "MEAN_MOTION_DOT": 8.1e-07, "MEAN_MOTION_DDOT": 0}, "tle": {"line1": "1 19419U 88074A   25357.79935683  .00000081  00000+0  12495-3 0  9995", "line2": "2 19419  90.0337  20.2800 0095102 213.8581 323.2352 13.42625286827887"}}, "geometry": {"type": "Point", "coordinates": [-159.67653066346486, 51.40803767954345]}}, {"type": "Feature", "properties": {"norad_id": 19420, "name": "OSCAR 31", "group": "nnss", "lat": 11.955051495639255, "lon": 20.62558290281395, "alt_km": 1168.435240189102, "timestamp": "2025-12-24T03:53:29.915809+00:00", "meta": {"OBJECT_NAME": "OSCAR 31", "OBJECT_ID": "1988-074B", "EPOCH": "2025-12-23T12:20:30.247008", "MEAN_MOTION": 13.4258639, "ECCENTRICITY": 0.0093467, "INCLINATION": 90.0354, "RA_OF_ASC_NODE": 20.6308, "ARG_OF_PERICENTER": 208.825, "MEAN_ANOMALY": 273.2468, "EPHEMERIS_TYPE": 0, "CLASSIFICATION_TYPE": "U", "NORAD_CAT_ID": 19420, "ELEMENT_SET_NO": 999, "REV_AT_EPOCH": 82795, "BSTAR": 0.00011195, "MEAN_MOTION_DOT": 7.4e-07, "MEAN_MOTION_DDOT": 0}, "tle": {"line1": "1 19420U 88074B   25357.51423897  .00000074  00000+0  11195-3 0  9994", "line2": "2 19420  90.0354  20.6308 0093467 208.8250 273.2468 13.42586390827956"}}, "geometry": {"type": "Point", "coordinates": [20.62558290281395, 11.955051495639255]}}]}